LEMUR-2-JOHANLORAN      
1 44084U 19018G   22330.90420892  .00058474  00000+0  10375-2 0  9998
2 44084  97.2934  32.6825 0006321 233.8802 126.1865 15.50019128203792
LEMUR-2-BEAUDACIOUS     
1 44085U 19018H   22331.12481416  .00023308  00000+0  59321-3 0  9996
2 44085  97.2916  30.4929 0007819 246.0898 113.9529 15.39556114203674
LEMUR-2-ELHAM           
1 44086U 19018J   22331.12176524  .00035861  00000+0  79416-3 0  9992
2 44086  97.2979  32.4568 0008011 238.7805 121.2658 15.43667354203787
LEMUR-2-VICTOR-ANDREW   
1 44087U 19018K   22331.39669499  .00060029  00000+0  10554-2 0  9991
2 44087  97.2971  33.9300 0006491 229.1427 130.9263 15.50270798203918
LEMUR-2-LILLYJO         
1 44396U 19038L   22331.20273823  .00011586  00000+0  48286-3 0  9996
2 44396  97.6357 302.6362 0017278 286.8272  73.1069 15.23739637187814
LEMUR-2-WANLI           
1 44402U 19038S   22330.50237972  .00015132  00000+0  64499-3 0  9996
2 44402  97.6377 301.5751 0016666 288.5146  71.4278 15.22920360187685
LEMUR-2-MORAG           
1 44403U 19038T   22330.77666688  .00009688  00000+0  42084-3 0  9991
2 44403  97.6427 302.8651 0017319 288.1659  71.7690 15.22387004187757
LEMUR-2-DUSTINTHEWIND   
1 44405U 19038V   22330.65677315  .00013736  00000+0  59664-3 0  9990
2 44405  97.6394 301.5524 0017787 288.0646  71.8652 15.22285022187702
LEMUR-2-ALEX-MADDY      
1 44407U 19038X   22331.38948214  .00008703  00000+0  40907-3 0  9990
2 44407  97.6488 302.0173 0018008 293.4878  66.4463 15.19700754187720
LEMUR-2-EJATTA          
1 44409U 19038Z   22331.34627743  .00012026  00000+0  50535-3 0  9990
2 44409  97.6370 303.1142 0016990 278.6153  81.3158 15.23456909187877
LEMUR-2-GREGROBINSON    
1 44411U 19038AB  22330.84924187  .00016432  00000+0  69248-3 0  9995
2 44411  97.6419 302.9067 0017324 297.0381  62.9087 15.23276536187420
LEMUR-2-YNDRD           
1 44413U 19038AD  22331.36594950  .00010681  00000+0  49937-3 0  9999
2 44413  97.6465 301.7264 0018215 296.6011  63.3357 15.19818397187724
LEMUR-2-JPGSQUARED      
1 44855U 19089D   22330.74266367  .00006263  00000+0  43626-3 0  9994
2 44855  36.9637 212.7387 0002772 103.4590 256.6462 15.05154685162451
LEMUR-2-HIMOMANDDAD     
1 44860U 19089J   22330.80135932  .00007182  00000+0  50185-3 0  9999
2 44860  36.9639 214.1107 0002640  96.3636 263.7408 15.04971478162321
LEMUR-2-PAPPY           
1 44861U 19089K   22330.79103594  .00005859  00000+0  41340-3 0  9999
2 44861  36.9635 214.0174 0002736  96.2860 263.8195 15.04712222162385
LEMUR-2-THEODOSIA       
1 44863U 19089M   22331.05573105  .00006539  00000+0  45473-3 0  9997
2 44863  36.9627 211.4794 0002769 107.6771 252.4275 15.05196727162347
LEMUR-2-ETHANOAKES      
1 46298U 20061AC  22331.13495309  .00014792  00000+0  65551-3 0  9990
2 46298  97.4340  40.2232 0001151  67.3786 292.7571 15.21717957123202
LEMUR-2-OSCARLATOR      
1 46299U 20061AD  22330.96317080  .00017179  00000+0  74561-3 0  9993
2 46299  97.4345  40.1913 0001392  66.5352 293.6030 15.22395017123211
LEMUR-2-SCHMIDTFALL     
1 46315U 20061AV  22331.18807724  .00017543  00000+0  74779-3 0  9992
2 46315  97.4359  41.0069 0001059 358.7977   1.3257 15.23005245123325
LEMUR-2-DJUPROERA       
1 46316U 20061AW  22331.13957575  .00019236  00000+0  79860-3 0  9995
2 46316  97.4350  41.1590 0001086 347.4275  12.6935 15.23879599123333
LEMUR-2-SQUAREJAWS      
1 46317U 20061AX  22330.72584272  .00018382  00000+0  77313-3 0  9992
2 46317  97.4351  40.6617 0001097 350.2054   9.9162 15.23450594123272
LEMUR-2-URSA-AVION      
1 46318U 20061AY  22330.73074152  .00017328  00000+0  73225-3 0  9992
2 46318  97.4351  40.6470 0001111 341.7651  18.3546 15.23302061123270
LEMUR-2-SLICERS         
1 46500U 20068Q   22330.79797980  .00005250  00000+0  34308-3 0  9999
2 46500  97.7394 271.9415 0013356  96.9821 263.2927 15.08182252118553
LEMUR-2-DAYWZAGOODDAY   
1 46501U 20068R   22330.83762109  .00006727  00000+0  43453-3 0  9991
2 46501  97.7410 272.2480 0013317  98.0900 262.1839 15.08504036118566
LEMUR-2-SUSURRUS        
1 46502U 20068S   22330.79874118  .00006941  00000+0  45197-3 0  9996
2 46502  97.7388 271.9369 0013387  99.1865 261.0878 15.08195373118552
LEMUR-2-NICHOL          
1 46503U 20068T   22330.82412230  .00006099  00000+0  39899-3 0  9990
2 46503  97.7381 271.9078 0013094 104.2175 256.0507 15.08076714118550
LEMUR-2-OZARAK          
1 46908U 20081D   22331.36033973  .00006871  00000+0  49380-3 0  9991
2 46908  36.9056 335.4490 0007064 310.0580  49.9543 15.03918952112685
LEMUR-2-JINDRA          
1 46909U 20081E   22331.35844003  .00008109  00000+0  56950-3 0  9992
2 46909  36.9117 333.6005 0006856 315.6846  44.3347 15.04707015112712
LEMUR-2-WALLACE         
1 46910U 20081F   22330.72753202  .00007612  00000+0  53946-3 0  9994
2 46910  36.9126 337.8088 0007472 310.7726  49.2381 15.04390979112606
LEMUR-2-JEREMIAH        
1 46911U 20081G   22330.71647974  .00006936  00000+0  49531-3 0  9995
2 46911  36.9113 337.7504 0007297 315.8437  44.1704 15.04150925112614
LEMUR-2-NEVA            
1 47450U 21006AP  22330.69004010  .00011846  00000+0  53356-3 0  9993
2 47450  97.4255  27.8342 0011133  77.5380 282.7101 15.21158225101925
LEMUR-2-SAOIRSEDH5GUO   
1 47453U 21006AS  22331.12986424  .00012588  00000+0  55899-3 0  9991
2 47453  97.4276  28.4057 0009847  76.9743 283.2591 15.21643215101989
LEMUR-2-NALLYWACKER     
1 47457U 21006AW  22331.10606601  .00012674  00000+0  55930-3 0  9991
2 47457  97.4251  28.3596 0010716  74.8412 285.4008 15.21846185101999
LEMUR-2-MANGO1          
1 47493U 21006CJ  22330.95084060  .00008782  00000+0  41549-3 0  9998
2 47493  97.4203  27.0136 0010460  79.6456 280.5958 15.19552756101927
LEMUR-2-RUAIRI-EILIDH   
1 47511U 21006DC  22330.69303747  .00011001  00000+0  51293-3 0  9991
2 47511  97.4190  26.4038 0008518  82.6829 277.5373 15.20009986101860
LEMUR-2-JENNIFERSONG    
1 47525U 21006DR  22330.71009905  .00013665  00000+0  60345-3 0  9994
2 47525  97.4208  27.5899 0010823  75.7898 284.4540 15.21805537101931
LEMUR-2-CHANTAL         
1 47529U 21006DV  22330.73611319  .00009602  00000+0  45858-3 0  9996
2 47529  97.4195  26.1589 0007960  86.4905 273.7240 15.19219998102809
LEMUR-2-NOOBNOOB        
1 47538U 21006DY  22330.68643940  .00010920  00000+0  49970-3 0  9999
2 47538  97.4258  27.6749 0010808  78.8778 281.3672 15.20638071101904
LEMUR-2-AMANDA-SVANTE   
1 48269U 21034B   22330.73309159  .00003998  00000+0  43451-3 0  9994
2 48269  97.7325  38.1243 0002071 248.9712 111.1284 14.88639149 85664
LEMUR-2-SPECIAL-K       
1 48273U 21034F   22331.48204432  .00003482  00000+0  37922-3 0  9994
2 48273  97.7323  38.8309 0002166 237.6275 122.4732 14.88640798 85789
LEMUR-2-JACKSON         
1 48885U 21059G   22330.84203300  .00014473  00000+0  65992-3 0  9992
2 48885  97.5712 100.5136 0007114 253.5930 106.4523 15.20727212 78580
LEMUR-2-ANNABANANA      
1 48923U 21059AW  22330.85215850  .00015350  00000+0  66534-3 0  9997
2 48923  97.5647 101.0201 0009730 241.2024 118.8235 15.22428161 78640
LEMUR-2-JOHN-TREIRES    
1 48925U 21059AY  22330.85651064  .00016414  00000+0  69003-3 0  9996
2 48925  97.5741 101.8244 0011994 244.4234 115.5763 15.23430631 78674
LEMUR-2-AC-CUBED        
1 48927U 21059BA  22330.79437221  .00013617  00000+0  59454-3 0  9999
2 48927  97.5717 101.4453 0014106 249.2563 110.7161 15.22161305 78658
LEMUR-2-MERIMA          
1 48929U 21059BC  22330.85947161  .00015310  00000+0  64974-3 0  9992
2 48929  97.5658 101.6262 0013928 249.9244 110.0494 15.23102426 78683
LEMUR-2-CARLSANTAMARI   
1 48959U 21059CJ  22331.35478144  .00021679  00000+0  82891-3 0  9994
2 48959  97.5706 103.0930 0013002 249.6536 110.3306 15.26538031 78810
LEMUR-2-RAMONAMAE       
1 51021U 22002AP  22331.43140674  .00010407  00000+0  49870-3 0  9997
2 51021  97.4699  36.3582 0007392 220.2930 139.7757 15.19086357 48120
LEMUR-2-KING-JULIEN     
1 51022U 22002AQ  22330.72470543  .00012616  00000+0  60762-3 0  9997
2 51022  97.4680  35.5280 0007225 220.7738 139.2956 15.18863447 48019
LEMUR-2-ROHOVITHSA      
1 51036U 22002BE  22331.44945784  .00008203  00000+0  42175-3 0  9991
2 51036  97.4684  35.9379 0007846 226.3048 199.5458 15.16692752 48097
LEMUR-2-MIRIWARI        
1 51054U 22002BY  22330.85191313  .00007657  00000+0  39415-3 0  9991
2 51054  97.4698  35.3008 0006999 219.8358 140.2362 15.16676172 48000
LEMUR-2-DJIRANG         
1 51058U 22002CC  22331.18259794  .00009246  00000+0  47501-3 0  9991
2 51058  97.4675  35.5421 0006853 218.2266 141.8482 15.16687337 48050
LEMUR-2-KRYWE           
1 51100U 22003G   22331.17184626  .00067954  00000+0  14600-2 0  9993
2 51100  44.9853 247.1417 0009380 140.3034 219.8543 15.43818513 48624
LEMUR-2-TENNYSONLILY    
1 52732U 22057A   22330.74114544  .00012019  00000+0  64054-3 0  9999
2 52732  97.5359  83.3398 0008022 352.7594   7.3521 15.15314978 27977
LEMUR-2-VANDENDRIES     
1 52733U 22057B   22331.31407188  .00006895  00000+0  37406-3 0  9999
2 52733  97.5223  83.6946 0005416   6.6238 353.5064 15.14864955 28067
LEMUR-2-KAREN_B         
1 52736U 22057E   22330.56605796  .00011508  00000+0  60669-3 0  9997
2 52736  97.5231  82.9565 0006479 343.0108  17.0907 15.15719780 27953
LEMUR-2-HANCOM-1        
1 52740U 22057J   22331.25712209  .00009008  00000+0  48717-3 0  9999
2 52740  97.5421  84.0536 0009695 343.0793  17.0114 15.14861336 28059
LEMUR-2-MIMI1307        
1 52769U 22057AP  22331.12132314  .00003734  00000+0  19827-3 0  9999
2 52769  97.5405  84.1900 0013458 314.5579  45.4554 15.15870695 28057
